GLOBALSTAR M057 [-]     
1 25943U 99058A   23260.44834874 -.00000068  00000+0  22448-3 0  9996
2 25943  52.0017   0.8471 0003228 133.9142 226.1974 12.24771608 88665
GLOBALSTAR M059 [-]     
1 25944U 99058B   23260.69076758 -.00000059  00000+0  33142-3 0  9996
2 25944  52.0005 134.4694 0000869  80.1684 315.9689 11.99952528 86140
GLOBALSTAR M056 [-]     
1 25945U 99058C   23260.11418611  .00000011  00000+0  11554-2 0  9991
2 25945  51.9958 154.4098 0001374  17.6680 130.8683 12.04768599 85595
GLOBALSTAR M031 [-]     
1 25946U 99058D   23260.80563132 -.00000009  00000+0  82296-3 0  9997
2 25946  51.9957  83.0298 0001377 354.2412  19.1773 12.15996022 87126
GLOBALSTAR M039 [-]     
1 25961U 99062A   23260.16641323 -.00000074  00000+0  16444-3 0  9991
2 25961  51.9854  54.9478 0003072  27.4846 332.6183 12.62269978 99519
GLOBALSTAR M034 [-]     
1 25962U 99062B   23260.29973722 -.00000078  00000+0  38686-4 0  9994
2 25962  51.9850 232.0785 0013977 276.2013 224.2708 11.79414974 63000
GLOBALSTAR M029 [-]     
1 25963U 99062C   23260.50902302 -.00000078  00000+0  10364-3 0  9997
2 25963  51.9833  23.5399 0001961 312.0166 170.0331 11.99867294 92454
GLOBALSTAR M061 [-]     
1 25964U 99062D   23260.69392251 -.00000093  00000+0 -20653-3 0  9994
2 25964  51.9811  46.6277 0005745 198.2361 175.0905 11.76749705 46303
